{"type": "FeatureCollection", "features": [ {"type": "Feature", "properties": {"norad_id": 33825, "name": "COSMOS 2251 DEB", "group": "cosmos-2251-debris", "lat": 73.2844602299282, "lon": 77.976262698624, "alt_km": 679.8623255503944, "timestamp": "2025-12-24T11:33:00.411252+00:00", "meta": {"OBJECT_NAME": "COSMOS 2251 DEB", "OBJECT_ID": "1993-036BS", "EPOCH": "2025-12-24T03:18:22.921056", "MEAN_MOTION": 14.6986884, "ECCENTRICITY": 0.0085102, "INCLINATION": 73.9851, "RA_OF_ASC_NODE": 5.6241, "ARG_OF_PERICENTER": 330.0281, "MEAN_ANOMALY": 97.4473, "EPHEMERIS_TYPE": 0, "CLASSIFICATION_TYPE": "U", "NORAD_CAT_ID": 33825, "ELEMENT_SET_NO": 999, "REV_AT_EPOCH": 89047, "BSTAR": 0.00099516, "MEAN_MOTION_DOT": 6.262e-05, "MEAN_MOTION_DDOT": 0}, "tle": {"line1": "1 33825U 93036BS  25358.13776529  .00006262  00000+0  99516-3 0  9993", "line2": "2 33825  73.9851   5.6241 0085102 330.0281  97.4473 14.69868840890473"}}, "geometry": {"type": "Point", "coordinates": [77.976262698624, 73.2844602299282]}}, {"type": "Feature", "properties": {"norad_id": 33826, "name": "COSMOS 2251 DEB", "group": "cosmos-2251-debris", "lat": -64.32843839252169, "lon": -8.672364268285683, "alt_km": 769.8974247062552, "timestamp": "2025-12-24T11:33:00.411263+00:00", "meta": {"OBJECT_NAME": "COSMOS 2251 DEB", "OBJECT_ID": "1993-036BT", "EPOCH": "2025-12-24T03:51:44.168832", "MEAN_MOTION": 14.51770074, "ECCENTRICITY": 0.0082516, "INCLINATION": 74.0639, "RA_OF_ASC_NODE": 28.4031, "ARG_OF_PERICENTER": 68.902, "MEAN_ANOMALY": 348.7038, "EPHEMERIS_TYPE": 0, "CLASSIFICATION_TYPE": "U", "NORAD_CAT_ID": 33826, "ELEMENT_SET_NO": 999, "REV_AT_EPOCH": 87935, "BSTAR": 0.00045759, "MEAN_MOTION_DOT": 1.894e-05, "MEAN_MOTION_DDOT": 0}, "tle": {"line1": "1 33826U 93036BT  25358.16092788  .00001894  00000+0  45759-3 0  9991", "line2": "2 33826  74.0639  28.4031 0082516  68.9020 348.7038 14.51770074879359"}}, "geometry": {"type": "Point", "coordinates": [-8.672364268285683, -64.32843839252169]}}, {"type": "Feature", "properties": {"norad_id": 33828, "name": "COSMOS 2251 DEB", "group": "cosmos-2251-debris", "lat": -52.03090659899507, "lon": 57.760763688669996, "alt_km": 737.830440226754, "timestamp": "2025-12-24T11:33:00.411275+00:00", "meta": {"OBJECT_NAME": "COSMOS 2251 DEB", "OBJECT_ID": "1993-036BV", "EPOCH": "2025-12-24T01:11:07.257120", "MEAN_MOTION": 14.44363816, "ECCENTRICITY": 0.002952, "INCLINATION": 74.0451, "RA_OF_ASC_NODE": 217.0592, "ARG_OF_PERICENTER": 288.2625, "MEAN_ANOMALY": 222.3509, "EPHEMERIS_TYPE": 0, "CLASSIFICATION_TYPE": "U", "NORAD_CAT_ID": 33828, "ELEMENT_SET_NO": 999, "REV_AT_EPOCH": 88476, "BSTAR": 0.00036717, "MEAN_MOTION_DOT": 1.244e-05, "MEAN_MOTION_DDOT": 0}, "tle": {"line1": "1 33828U 93036BV  25358.04938955  .00001244  00000+0  36717-3 0  9998", "line2": "2 33828  74.0451 217.0592 0029520 288.2625 222.3509 14.44363816884760"}}, "geometry": {"type": "Point", "coordinates": [57.760763688669996, -52.03090659899507]}}, {"type": "Feature", "properties": {"norad_id": 33830, "name": "COSMOS 2251 DEB", "group": "cosmos-2251-debris", "lat": 45.41057422561649, "lon": -135.76850790650025, "alt_km": 630.6503730223321, "timestamp": "2025-12-24T11:33:00.411287+00:00", "meta": {"OBJECT_NAME": "COSMOS 2251 DEB", "OBJECT_ID": "1993-036BX", "EPOCH": "2025-12-24T00:38:07.879776", "MEAN_MOTION": 14.77011696, "ECCENTRICITY": 0.0042732, "INCLINATION": 74.0307, "RA_OF_ASC_NODE": 208.2356, "ARG_OF_PERICENTER": 326.0139, "MEAN_ANOMALY": 184.2295, "EPHEMERIS_TYPE": 0, "CLASSIFICATION_TYPE": "U", "NORAD_CAT_ID": 33830, "ELEMENT_SET_NO": 999, "REV_AT_EPOCH": 89638, "BSTAR": 0.00075639, "MEAN_MOTION_DOT": 5.383e-05, "MEAN_MOTION_DDOT": 0}, "tle": {"line1": "1 33830U 93036BX  25358.02648009  .00005383  00000+0  75639-3 0  9991", "line2": "2 33830  74.0307 208.2356 0042732 326.0139 184.2295 14.77011696896385"}}, "geometry": {"type": "Point", "coordinates": [-135.76850790650025, 45.41057422561649]}}, {"type": "Feature", "properties": {"norad_id": 33832, "name": "COSMOS 2251 DEB", "group": "cosmos-2251-debris", "lat": 46.32391233343622, "lon": -9.856116834087208, "alt_km": 684.7926864916199, "timestamp": "2025-12-24T11:33:00.411298+00:00", "meta": {"OBJECT_NAME": "COSMOS 2251 DEB", "OBJECT_ID": "1993-036BZ", "EPOCH": "2025-12-23T22:19:32.963232", "MEAN_MOTION": 14.60771945, "ECCENTRICITY": 0.0024089, "INCLINATION": 74.0526, "RA_OF_ASC_NODE": 188.6209, "ARG_OF_PERICENTER": 217.5194, "MEAN_ANOMALY": 257.4349, "EPHEMERIS_TYPE": 0, "CLASSIFICATION_TYPE": "U", "NORAD_CAT_ID": 33832, "ELEMENT_SET_NO": 999, "REV_AT_EPOCH": 88588, "BSTAR": 0.0013829, "MEAN_MOTION_DOT": 6.754e-05, "MEAN_MOTION_DDOT": 0}, "tle": {"line1": "1 33832U 93036BZ  25357.93024263  .00006754  00000+0  13829-2 0  9997", "line2": "2 33832  74.0526 188.6209 0024089 217.5194 257.4349 14.60771945885886"}}, "geometry": {"type": "Point", "coordinates": [-9.856116834087208, 46.32391233343622]}}, {"type": "Feature", "properties": {"norad_id": 33835, "name": "COSMOS 2251 DEB", "group": "cosmos-2251-debris", "lat": 31.818110414089823, "lon": 88.86740788658287, "alt_km": 686.8244174565798, "timestamp": "2025-12-24T11:33:00.411309+00:00", "meta": {"OBJECT_NAME": "COSMOS 2251 DEB", "OBJECT_ID": "1993-036CC", "EPOCH": "2025-12-23T05:56:40.433280", "MEAN_MOTION": 14.6234525, "ECCENTRICITY": 0.00538517, "INCLINATION": 74.0572, "RA_OF_ASC_NODE": 81.01, "ARG_OF_PERICENTER": 131.4814, "MEAN_ANOMALY": 251.1024, "EPHEMERIS_TYPE": 0, "CLASSIFICATION_TYPE": "U", "NORAD_CAT_ID": 33835, "ELEMENT_SET_NO": 999, "REV_AT_EPOCH": 88943, "BSTAR": 0.00092282942, "MEAN_MOTION_DOT": 4.733e-05, "MEAN_MOTION_DDOT": 0}, "tle": {"line1": "1 33835U 93036CC  25357.24769020  .00004733  00000+0  92283-3 0  9998", "line2": "2 33835  74.0572  81.0100 0053851 131.4814 251.1024 14.62345250889432"}}, "geometry": {"type": "Point", "coordinates": [88.86740788658287, 31.818110414089823]}}, {"type": "Feature", "properties": {"norad_id": 33836, "name": "COSMOS 2251 DEB", "group": "cosmos-2251-debris", "lat": 66.81786957063377, "lon": -82.13539006817744, "alt_km": 607.407900670667, "timestamp": "2025-12-24T11:33:00.411319+00:00", "meta": {"OBJECT_NAME": "COSMOS 2251 DEB", "OBJECT_ID": "1993-036CD", "EPOCH": "2025-12-23T03:29:31.689888", "MEAN_MOTION": 14.79785856, "ECCENTRICITY": 0.00227896, "INCLINATION": 73.9961, "RA_OF_ASC_NODE": 238.4155, "ARG_OF_PERICENTER": 87.573, "MEAN_ANOMALY": 72.5934, "EPHEMERIS_TYPE": 0, "CLASSIFICATION_TYPE": "U", "NORAD_CAT_ID": 33836, "ELEMENT_SET_NO": 999, "REV_AT_EPOCH": 64242, "BSTAR": 0.0012029969, "MEAN_MOTION_DOT": 9.073e-05, "MEAN_MOTION_DDOT": 0}, "tle": {"line1": "1 33836U 93036CD  25357.14550567  .00009073  00000+0  12030-2 0  9995", "line2": "2 33836  73.9961 238.4155 0022789  87.5730  72.5934 14.79785856642424"}}, "geometry": {"type": "Point", "coordinates": [-82.13539006817744, 66.81786957063377]}}, {"type": "Feature", "properties": {"norad_id": 33837, "name": "COSMOS 2251 DEB", "group": "cosmos-2251-debris", "lat": -73.77874574348185, "lon": -66.28975161299059, "alt_km": 705.5003157814735, "timestamp": "2025-12-24T11:33:00.411330+00:00", "meta": {"OBJECT_NAME": "COSMOS 2251 DEB", "OBJECT_ID": "1993-036CE", "EPOCH": "2025-12-23T11:09:00.922464", "MEAN_MOTION": 14.50722608, "ECCENTRICITY": 0.00358961, "INCLINATION": 74.0124, "RA_OF_ASC_NODE": 35.4061, "ARG_OF_PERICENTER": 255.4273, "MEAN_ANOMALY": 104.2905, "EPHEMERIS_TYPE": 0, "CLASSIFICATION_TYPE": "U", "NORAD_CAT_ID": 33837, "ELEMENT_SET_NO": 999, "REV_AT_EPOCH": 88951, "BSTAR": 0.00022621397, "MEAN_MOTION_DOT": 8.68e-06, "MEAN_MOTION_DDOT": 0}, "tle": {"line1": "1 33837U 93036CE  25357.46459401  .00000868  00000+0  22621-3 0  9997", "line2": "2 33837  74.0124  35.4061 0035896 255.4273 104.2905 14.50722608889519"}}, "geometry": {"type": "Point", "coordinates": [-66.28975161299059, -73.77874574348185]}}, {"type": "Feature", "properties": {"norad_id": 33838, "name": "COSMOS 2251 DEB", "group": "cosmos-2251-debris", "lat": 39.26126955537654, "lon": 141.35569453787474, "alt_km": 744.974109877915, "timestamp": "2025-12-24T11:33:00.411341+00:00", "meta": {"OBJECT_NAME": "COSMOS 2251 DEB", "OBJECT_ID": "1993-036CF", "EPOCH": "2025-12-23T15:34:17.107104", "MEAN_MOTION": 14.48394985, "ECCENTRICITY": 0.00274788, "INCLINATION": 74.0364, "RA_OF_ASC_NODE": 129.3835, "ARG_OF_PERICENTER": 249.7787, "MEAN_ANOMALY": 132.5348, "EPHEMERIS_TYPE": 0, "CLASSIFICATION_TYPE": "U", "NORAD_CAT_ID": 33838, "ELEMENT_SET_NO": 999, "REV_AT_EPOCH": 88727, "BSTAR": 0.00039028626, "MEAN_MOTION_DOT": 1.441e-05, "MEAN_MOTION_DDOT": 0}, "tle": {"line1": "1 33838U 93036CF  25357.64880911  .00001441  00000+0  39029-3 0  9990", "line2": "2 33838  74.0364 129.3835 0027478 249.7787 132.5348 14.48394985887277"}}, "geometry": {"type": "Point", "coordinates": [141.35569453787474, 39.26126955537654]}}, {"type": "Feature", "properties": {"norad_id": 33839, "name": "COSMOS 2251 DEB", "group": "cosmos-2251-debris", "lat": -67.98041705290697, "lon": 138.866628412716, "alt_km": 626.074485602916, "timestamp": "2025-12-24T11:33:00.411352+00:00", "meta": {"OBJECT_NAME": "COSMOS 2251 DEB", "OBJECT_ID": "1993-036CG", "EPOCH": "2025-12-23T19:33:34.360128", "MEAN_MOTION": 14.64445826, "ECCENTRICITY": 0.00853576, "INCLINATION": 74.0374, "RA_OF_ASC_NODE": 185.1983, "ARG_OF_PERICENTER": 294.7494, "MEAN_ANOMALY": 79.6279, "EPHEMERIS_TYPE": 0, "CLASSIFICATION_TYPE": "U", "NORAD_CAT_ID": 33839, "ELEMENT_SET_NO": 999, "REV_AT_EPOCH": 89742, "BSTAR": 0.00019226296, "MEAN_MOTION_DOT": 1.039e-05, "MEAN_MOTION_DDOT": 0}, "tle": {"line1": "1 33839U 93036CG  25357.81498102  .00001039  00000+0  19226-3 0  9997", "line2": "2 33839  74.0374 185.1983 0085357 294.7494  79.6279 14.64445826897429"}}, "geometry": {"type": "Point", "coordinates": [138.866628412716, -67.98041705290697]}}]}